NORAD_CAT_ID,OBJECT_NAME,OBJECT_TYPE,EPOCH,MEAN_MOTION,ECCENTRICITY,INCLINATION,RA_OF_ASC_NODE,ARG_OF_PERICENTER,MEAN_ANOMALY,BSTAR,MEAN_MOTION_DOT,MEAN_MOTION_DDOT,TLE_LINE0,TLE_LINE1,TLE_LINE2,SEMIMAJOR_AXIS,PERIOD,APOGEE,PERIGEE,DECAYED
53434.0,STARLINK-4498,PAYLOAD,2024-06-11 11:49:56,15.08850043,0.0001382,53.2186,79.843,78.1067,282.008,0.00018123,2.598e-05,0.0,0 STARLINK-4498,1 53434U 22097AY  24163.49301899  .00002598  00000-0  18123-3 0  9990,2 53434  53.2186  79.8430 0001382  78.1067 282.0080 15.08850043102759,6917.85,95.437,540.671,538.759,0.0
53434.0,STARLINK-4498,PAYLOAD,2024-06-12 00:33:02,15.08841248,0.0001448,53.2185,77.4596,101.3455,258.77,6.4925e-05,7.46e-06,0.0,0 STARLINK-4498,1 53434U 22097AY  24164.02294689  .00000746  00000-0  64925-4 0  9993,2 53434  53.2185  77.4596 0001448 101.3455 258.7700 15.08841248102349,6917.877,95.437,540.743,538.74,0.0
53434.0,STARLINK-4498,PAYLOAD,2024-06-12 21:13:03,15.08837977,0.0001803,53.2193,73.5917,94.6483,265.4715,3.9537e-05,3.41e-06,0.0,0 STARLINK-4498,1 53434U 22097AY  24164.88406941  .00000341  00000-0  39537-4 0  9995,2 53434  53.2193  73.5917 0001803  94.6483 265.4715 15.08837977102965,6917.887,95.438,540.999,538.504,0.0
53434.0,STARLINK-4498,PAYLOAD,2024-06-13 00:23:49,15.0886481,0.0001814,53.2184,72.9933,125.3035,234.8127,-0.00037071,-6.187e-05,0.0,0 STARLINK-4498,1 53434U 22097AY  24165.01654543 -.00006187  00000-0 -37071-3 0  9990,2 53434  53.2184  72.9933 0001814 125.3035 234.8127 15.08864810102494,6917.805,95.436,540.924,538.415,0.0
53434.0,STARLINK-4498,PAYLOAD,2024-06-13 22:39:14,15.08833957,0.000124,53.2166,68.8383,94.2241,265.8893,6.9699e-06,-1.77e-06,0.0,0 STARLINK-4498,1 53434U 22097AY  24165.94391349 -.00000177  00000-0  69699-5 0  9999,2 53434  53.2166  68.8383 0001240  94.2241 265.8893 15.08833957103126,6917.899,95.438,540.622,538.906,0.0
53434.0,STARLINK-4498,PAYLOAD,2024-06-14 00:14:37,15.08836123,0.0001319,53.2172,68.5415,100.5906,259.5235,1.4934e-05,-5e-07,0.0,0 STARLINK-4498,1 53434U 22097AY  24166.01015194 -.00000050  00000-0  14934-4 0  9990,2 53434  53.2172  68.5415 0001319 100.5906 259.5235 15.08836123103131,6917.892,95.438,540.67,538.845,0.0
53434.0,STARLINK-4498,PAYLOAD,2024-06-14 22:30:00,15.08836758,0.0001288,53.2178,64.3778,93.6384,266.4755,9.8705e-05,1.283e-05,0.0,0 STARLINK-4498,1 53434U 22097AY  24166.93751037  .00001283  00000-0  98705-4 0  9990,2 53434  53.2178  64.3778 0001288  93.6384 266.4755 15.08836758103273,6917.89,95.438,540.646,538.864,0.0
53434.0,STARLINK-4498,PAYLOAD,2024-06-15 09:37:41,15.08849674,0.0001331,53.2183,62.2989,93.184,266.9304,0.00018693,2.689e-05,0.0,0 STARLINK-4498,1 53434U 22097AY  24167.40117947  .00002689  00000-0  18693-3 0  9997,2 53434  53.2183  62.2989 0001331  93.1840 266.9304 15.08849674103345,6917.851,95.437,540.637,538.795,0.0
53434.0,STARLINK-4498,PAYLOAD,2024-06-15 22:20:48,15.08833607,0.0001377,53.217,59.9187,95.533,264.582,-9.914e-06,-4.46e-06,0.0,0 STARLINK-4498,1 53434U 22097AY  24167.93111731 -.00000446  00000-0 -99140-5 0  9999,2 53434  53.2170  59.9187 0001377  95.5330 264.5820 15.08833607103429,6917.9,95.438,540.718,538.812,0.0
53434.0,STARLINK-4498,PAYLOAD,2024-06-16 09:28:29,15.0884936,0.0001474,53.2176,57.8394,103.6786,256.4371,0.00010649,1.408e-05,0.0,0 STARLINK-4498,1 53434U 22097AY  24168.39478350  .00001408  00000-0  10649-3 0  9995,2 53434  53.2176  57.8394 0001474 103.6786 256.4371 15.08849360103497,6917.852,95.437,540.736,538.697,0.0
53434.0,STARLINK-4498,PAYLOAD,2024-06-16 22:11:36,15.08829468,0.0001344,53.2177,55.4582,87.6638,272.4508,-5.9697e-05,-1.238e-05,0.0,0 STARLINK-4498,1 53434U 22097AY  24168.92472322 -.00001238  00000-0 -59697-4 0  9997,2 53434  53.2177  55.4582 0001344  87.6638 272.4508 15.08829468103570,6917.913,95.438,540.707,538.848,0.0
53434.0,STARLINK-4498,PAYLOAD,2024-06-17 20:26:59,15.08831444,0.0001496,53.2175,51.2961,88.9644,271.1519,0.00012699,1.733e-05,0.0,0 STARLINK-4498,1 53434U 22097AY  24169.85208060  .00001733  00000-0  12699-3 0  9994,2 53434  53.2175  51.2961 0001496  88.9644 271.1519 15.08831444103229,6917.907,95.438,540.806,538.737,0.0
53434.0,STARLINK-4498,PAYLOAD,2024-06-17 22:02:22,15.08835415,0.0001438,53.2172,50.9993,92.5976,267.5181,8.7646e-05,1.107e-05,0.0,0 STARLINK-4498,1 53434U 22097AY  24169.91831953  .00001107  00000-0  87646-4 0  9994,2 53434  53.2172  50.9993 0001438  92.5976 267.5181 15.08835415103723,6917.894,95.438,540.754,538.765,0.0
53434.0,STARLINK-4498,PAYLOAD,2024-06-18 09:10:04,15.08847027,0.0001632,53.2194,48.9178,90.6458,269.4722,0.00013046,1.789e-05,0.0,0 STARLINK-4498,1 53434U 22097AY  24170.38199160  .00001789  00000-0  13046-3 0  9992,2 53434  53.2194  48.9178 0001632  90.6458 269.4722 15.08847027103307,6917.859,95.437,540.853,538.595,0.0
53434.0,STARLINK-4498,PAYLOAD,2024-06-18 21:53:10,15.08823281,0.0001357,53.2175,46.5385,89.4333,270.6814,0.00011014,1.465e-05,0.0,0 STARLINK-4498,1 53434U 22097AY  24170.91192941  .00001465  00000-0  11014-3 0  9995,2 53434  53.2175  46.5385 0001357  89.4333 270.6814 15.08823281103382,6917.931,95.439,540.735,538.858,0.0
53434.0,STARLINK-4498,PAYLOAD,2024-06-19 01:03:56,15.08836619,0.0001473,53.217,45.9429,89.5873,270.5288,0.00010197,1.335e-05,0.0,0 STARLINK-4498,1 53434U 22097AY  24171.04440009  .00001335  00000-0  10197-3 0  9998,2 53434  53.2170  45.9429 0001473  89.5873 270.5288 15.08836619103404,6917.891,95.438,540.775,538.737,0.0
53434.0,STARLINK-4498,PAYLOAD,2024-06-19 09:00:51,15.08843602,0.0001488,53.2172,44.4567,88.2536,271.8627,0.00013823,1.913e-05,0.0,0 STARLINK-4498,1 53434U 22097AY  24171.37559739  .00001913  00000-0  13823-3 0  9996,2 53434  53.2172  44.4567 0001488  88.2536 271.8627 15.08843602103941,6917.869,95.437,540.764,538.705,0.0
53434.0,STARLINK-4498,PAYLOAD,2024-06-19 21:43:56,15.08844504,0.0001411,53.2167,42.0768,92.6191,267.4962,0.00011228,1.5e-05,0.0,0 STARLINK-4498,1 53434U 22097AY  24171.90551721  .00001500  00000-0  11228-3 0  9997,2 53434  53.2167  42.0768 0001411  92.6191 267.4962 15.08844504104029,6917.867,95.437,540.708,538.756,0.0
53434.0,STARLINK-4498,PAYLOAD,2024-06-20 00:54:42,15.08850314,0.0001475,53.2169,41.4815,101.9554,258.1603,0.00014997,2.1e-05,0.0,0 STARLINK-4498,1 53434U 22097AY  24172.03799393  .00002100  00000-0  14997-3 0  9994,2 53434  53.2169  41.4815 0001475 101.9554 258.1603 15.08850314103556,6917.849,95.437,540.734,538.693,0.0
53434.0,STARLINK-4498,PAYLOAD,2024-06-20 08:51:38,15.08854674,0.0001392,53.2169,39.9933,101.6428,258.472,0.00035358,5.346e-05,0.0,0 STARLINK-4498,1 53434U 22097AY  24172.36919131  .00005346  00000-0  35358-3 0  9993,2 53434  53.2169  39.9933 0001392 101.6428 258.4720 15.08854674104090,6917.836,95.437,540.663,538.738,0.0
53434.0,STARLINK-4498,PAYLOAD,2024-06-20 21:34:43,15.0884185,0.0001507,53.2173,37.6144,96.7481,263.3682,7.5639e-05,9.16e-06,0.0,0 STARLINK-4498,1 53434U 22097AY  24172.89911668  .00000916  00000-0  75639-4 0  9993,2 53434  53.2173  37.6144 0001507  96.7481 263.3682 15.08841850103683,6917.875,95.437,540.782,538.697,0.0
53434.0,STARLINK-4498,PAYLOAD,2024-06-21 00:45:29,15.08843097,0.0001515,53.2174,37.0198,92.2881,267.8284,0.00010784,1.429e-05,0.0,0 STARLINK-4498,1 53434U 22097AY  24173.03159646  .00001429  00000-0  10784-3 0  9999,2 53434  53.2174  37.0198 0001515  92.2881 267.8284 15.08843097104190,6917.871,95.437,540.784,538.688,0.0
53434.0,STARLINK-4498,PAYLOAD,2024-06-21 21:25:30,15.08843804,0.0001518,53.2181,33.1544,86.0115,274.105,0.00015512,2.182e-05,0.0,0 STARLINK-4498,1 53434U 22097AY  24173.89271660  .00002182  00000-0  15512-3 0  9995,2 53434  53.2181  33.1544 0001518  86.0115 274.1050 15.08843804104327,6917.869,95.437,540.784,538.684,0.0
53434.0,STARLINK-4498,PAYLOAD,2024-06-22 21:16:18,15.08836606,0.0001303,53.2169,28.6949,97.3092,262.8048,6.3002e-05,7.15e-06,0.0,0 STARLINK-4498,1 53434U 22097AY  24174.88631996  .00000715  00000-0  63002-4 0  9995,2 53434  53.2169  28.6949 0001303  97.3092 262.8048 15.08836606103986,6917.891,95.438,540.657,538.854,0.0
53434.0,STARLINK-4498,PAYLOAD,2024-06-23 19:31:41,15.08839254,0.0001292,53.2171,24.5315,105.8968,254.2166,7.9513e-05,9.78e-06,0.0,0 STARLINK-4498,1 53434U 22097AY  24175.81367935  .00000978  00000-0  79513-4 0  9993,2 53434  53.2171  24.5315 0001292 105.8968 254.2166 15.08839254104614,6917.883,95.438,540.641,538.854,0.0
53434.0,STARLINK-4498,PAYLOAD,2024-06-24 00:17:51,15.08840233,0.0001306,53.2171,23.6389,107.3228,252.7907,8.5854e-05,1.079e-05,0.0,0 STARLINK-4498,1 53434U 22097AY  24176.01239882  .00001079  00000-0  85854-4 0  9993,2 53434  53.2171  23.6389 0001306 107.3228 252.7907 15.08840233104151,6917.88,95.438,540.648,538.841,0.0
53434.0,STARLINK-4498,PAYLOAD,2024-06-24 20:57:52,15.08836088,0.0001278,53.2172,19.772,108.5389,251.5742,6.6497e-05,7.7e-06,0.0,0 STARLINK-4498,1 53434U 22097AY  24176.87352267  .00000770  00000-0  66497-4 0  9999,2 53434  53.2172  19.7720 0001278 108.5389 251.5742 15.08836088104771,6917.892,95.438,540.641,538.873,0.0
53434.0,STARLINK-4498,PAYLOAD,2024-06-25 20:48:39,15.08844021,0.0001254,53.2171,15.3102,91.0978,269.0157,0.00016836,2.393e-05,0.0,0 STARLINK-4498,1 53434U 22097AY  24177.86712122  .00002393  00000-0  16836-3 0  9993,2 53434  53.2171  15.3102 0001254  91.0978 269.0157 15.08844021104927,6917.868,95.437,540.601,538.866,0.0
53434.0,STARLINK-4498,PAYLOAD,2024-06-27 06:11:45,15.08842824,0.000136,53.2171,9.0694,83.8849,276.2298,0.00012488,1.7e-05,0.0,0 STARLINK-4498,1 53434U 22097AY  24179.25816429  .00001700  00000-0  12488-3 0  9993,2 53434  53.2171   9.0694 0001360  83.8849 276.2298 15.08842824104641,6917.872,95.437,540.678,538.796,0.0
53434.0,STARLINK-4498,PAYLOAD,2024-06-27 18:54:50,15.08839733,0.0001381,53.2175,6.6905,84.4396,275.6753,3.1116e-05,2.07e-06,0.0,0 STARLINK-4498,1 53434U 22097AY  24179.78808622  .00000207  00000-0  31116-4 0  9998,2 53434  53.2175   6.6905 0001381  84.4396 275.6753 15.08839733105218,6917.881,95.438,540.702,538.791,0.0
